DUPLEX                  
1 66906U 98067XS  26105.09635757  .00019648  00000+0  25723-3 0  9992
2 66906  51.6279 247.0177 0003893 293.0131  67.0450 15.58598219 20804
ISS OBJECT XT           
1 66907U 98067XT  26105.08939002  .00262810  00000+0  99834-3 0  9997
2 66907  51.6198 237.8924 0010272 312.8462  47.1678 15.86266347 20927
ISS OBJECT XU           
1 66908U 98067XU  26105.08144832  .00270734  00000+0  10030-2 0  9991
2 66908  51.6201 237.8336 0010175 311.1519  48.8607 15.86760339 20927
SILVERSAT               
1 66909U 98067XV  26105.06953545  .00663705  20908-3  12552-2 0  9997
2 66909  51.6140 235.4536 0013604 318.9730  41.0255 15.99998535 20958
ISS OBJECT XW           
1 66910U 98067XW  26104.61624315  .00171247  00000+0  77577-3 0  9990
2 66910  51.6189 240.7289 0009515 304.3505  55.6597 15.82842838 20846
ISS OBJECT XY           
1 66912U 98067XY  26104.66437717  .00080395  00000+0  60664-3 0  9997
2 66912  51.6239 244.1064 0006401 300.4632  59.5733 15.71741483 20793
KNACKSAT-2              
1 67683U 98067XZ  26104.43290565  .00023109  00000+0  34523-3 0  9991
2 67683  51.6301 253.8399 0011305 320.3591  39.6572 15.54855751 10346
CORAL                   
1 67684U 98067YA  26104.69486067  .00057787  00000+0  67685-3 0  9998
2 67684  51.6276 251.0865 0014946 313.5696  46.4056 15.60833285 10405
GXIBA-1                 
1 67685U 98067YB  26105.12270168  .00030486  00000+0  43970-3 0  9999
2 67685  51.6295 250.1958 0013380 320.0384  39.9621 15.55623009 10453
UITMSAT-2               
1 67686U 98067YC  26105.09495128  .00036718  00000+0  50231-3 0  9993
2 67686  51.6291 250.0116 0010287 298.4747  61.5208 15.56999689 10452
HMU-SAT2                
1 67687U 98067YD  26105.13077316  .00023493  00000+0  34533-3 0  9997
2 67687  51.6307 250.2540 0009709 300.3665  59.6366 15.55306273 10377
LEOPARD                 
1 67688U 98067YE  26105.10760594  .00033230  00000+0  46621-3 0  9993
2 67688  51.6292 250.0982 0009952 298.9533  61.0460 15.56372678 10370
CREW DRAGON 12          
1 67796U 26031A   26105.23148970  .00005508  00000+0  10834-3 0  9991
2 67796  51.6321 251.6702 0006571 314.4960  45.5491 15.48920688562028
PROGRESS-MS 33          
1 68319U 26058A   26105.23148970  .00005508  00000+0  10834-3 0  9992
2 68319  51.6321 251.6702 0006571 314.4960  45.5491 15.48920688  3165
CYGNUS NG-24            
1 68689U 26079A   26105.23148970  .00005508  00000+0  10834-3 0  9995
2 68689  51.6321 251.6702 0006571 314.4960  45.5491 15.48920688   500
