[{"OBJECT_NAME":"DUPLEX","OBJECT_ID":"1998-067XS","EPOCH":"2026-04-15T02:18:45.294048","MEAN_MOTION":15.58598219,"ECCENTRICITY":0.00038932,"INCLINATION":51.6279,"RA_OF_ASC_NODE":247.0177,"ARG_OF_PERICENTER":293.0131,"MEAN_ANOMALY":67.045,"EPHEMERIS_TYPE":0,"CLASSIFICATION_TYPE":"U","NORAD_CAT_ID":66906,"ELEMENT_SET_NO":999,"REV_AT_EPOCH":2080,"BSTAR":0.00025723048,"MEAN_MOTION_DOT":0.00019648,"MEAN_MOTION_DDOT":0},{"OBJECT_NAME":"ISS OBJECT XT","OBJECT_ID":"1998-067XT","EPOCH":"2026-04-15T02:08:43.297728","MEAN_MOTION":15.86266347,"ECCENTRICITY":0.00102722,"INCLINATION":51.6198,"RA_OF_ASC_NODE":237.8924,"ARG_OF_PERICENTER":312.8462,"MEAN_ANOMALY":47.1678,"EPHEMERIS_TYPE":0,"CLASSIFICATION_TYPE":"U","NORAD_CAT_ID":66907,"ELEMENT_SET_NO":999,"REV_AT_EPOCH":2092,"BSTAR":0.00099834043,"MEAN_MOTION_DOT":0.0026281,"MEAN_MOTION_DDOT":0},{"OBJECT_NAME":"ISS OBJECT XU","OBJECT_ID":"1998-067XU","EPOCH":"2026-04-15T01:57:17.134848","MEAN_MOTION":15.86760339,"ECCENTRICITY":0.0010175,"INCLINATION":51.6201,"RA_OF_ASC_NODE":237.8336,"ARG_OF_PERICENTER":311.1519,"MEAN_ANOMALY":48.8607,"EPHEMERIS_TYPE":0,"CLASSIFICATION_TYPE":"U","NORAD_CAT_ID":66908,"ELEMENT_SET_NO":999,"REV_AT_EPOCH":2092,"BSTAR":0.0010030297,"MEAN_MOTION_DOT":0.00270734,"MEAN_MOTION_DDOT":0},{"OBJECT_NAME":"SILVERSAT","OBJECT_ID":"1998-067XV","EPOCH":"2026-04-15T01:40:07.862880","MEAN_MOTION":15.99998535,"ECCENTRICITY":0.00136044,"INCLINATION":51.614,"RA_OF_ASC_NODE":235.4536,"ARG_OF_PERICENTER":318.973,"MEAN_ANOMALY":41.0255,"EPHEMERIS_TYPE":0,"CLASSIFICATION_TYPE":"U","NORAD_CAT_ID":66909,"ELEMENT_SET_NO":999,"REV_AT_EPOCH":2095,"BSTAR":0.0012551521,"MEAN_MOTION_DOT":0.00663705,"MEAN_MOTION_DDOT":0.00020908101},{"OBJECT_NAME":"ISS OBJECT XW","OBJECT_ID":"1998-067XW","EPOCH":"2026-04-14T14:47:23.408160","MEAN_MOTION":15.82842838,"ECCENTRICITY":0.0009515,"INCLINATION":51.6189,"RA_OF_ASC_NODE":240.7289,"ARG_OF_PERICENTER":304.3505,"MEAN_ANOMALY":55.6597,"EPHEMERIS_TYPE":0,"CLASSIFICATION_TYPE":"U","NORAD_CAT_ID":66910,"ELEMENT_SET_NO":999,"REV_AT_EPOCH":2084,"BSTAR":0.00077577326,"MEAN_MOTION_DOT":0.00171247,"MEAN_MOTION_DDOT":0},{"OBJECT_NAME":"ISS OBJECT XY","OBJECT_ID":"1998-067XY","EPOCH":"2026-04-14T15:56:42.187488","MEAN_MOTION":15.71741483,"ECCENTRICITY":0.00064014,"INCLINATION":51.6239,"RA_OF_ASC_NODE":244.1064,"ARG_OF_PERICENTER":300.4632,"MEAN_ANOMALY":59.5733,"EPHEMERIS_TYPE":0,"CLASSIFICATION_TYPE":"U","NORAD_CAT_ID":66912,"ELEMENT_SET_NO":999,"REV_AT_EPOCH":2079,"BSTAR":0.00060663782,"MEAN_MOTION_DOT":0.00080395,"MEAN_MOTION_DDOT":0},{"OBJECT_NAME":"KNACKSAT-2","OBJECT_ID":"1998-067XZ","EPOCH":"2026-04-14T10:23:23.048160","MEAN_MOTION":15.54855751,"ECCENTRICITY":0.00113057,"INCLINATION":51.6301,"RA_OF_ASC_NODE":253.8399,"ARG_OF_PERICENTER":320.3591,"MEAN_ANOMALY":39.6572,"EPHEMERIS_TYPE":0,"CLASSIFICATION_TYPE":"U","NORAD_CAT_ID":67683,"ELEMENT_SET_NO":999,"REV_AT_EPOCH":1034,"BSTAR":0.00034522923,"MEAN_MOTION_DOT":0.00023109,"MEAN_MOTION_DDOT":0},{"OBJECT_NAME":"CORAL","OBJECT_ID":"1998-067YA","EPOCH":"2026-04-14T16:40:35.961888","MEAN_MOTION":15.60833285,"ECCENTRICITY":0.00149467,"INCLINATION":51.6276,"RA_OF_ASC_NODE":251.0865,"ARG_OF_PERICENTER":313.5696,"MEAN_ANOMALY":46.4056,"EPHEMERIS_TYPE":0,"CLASSIFICATION_TYPE":"U","NORAD_CAT_ID":67684,"ELEMENT_SET_NO":999,"REV_AT_EPOCH":1040,"BSTAR":0.00067685432,"MEAN_MOTION_DOT":0.00057787,"MEAN_MOTION_DDOT":0},{"OBJECT_NAME":"GXIBA-1","OBJECT_ID":"1998-067YB","EPOCH":"2026-04-15T02:56:41.425152","MEAN_MOTION":15.55623009,"ECCENTRICITY":0.00133805,"INCLINATION":51.6295,"RA_OF_ASC_NODE":250.1958,"ARG_OF_PERICENTER":320.0384,"MEAN_ANOMALY":39.9621,"EPHEMERIS_TYPE":0,"CLASSIFICATION_TYPE":"U","NORAD_CAT_ID":67685,"ELEMENT_SET_NO":999,"REV_AT_EPOCH":1045,"BSTAR":0.0004397023,"MEAN_MOTION_DOT":0.00030486,"MEAN_MOTION_DDOT":0},{"OBJECT_NAME":"UITMSAT-2","OBJECT_ID":"1998-067YC","EPOCH":"2026-04-15T02:16:43.790592","MEAN_MOTION":15.56999689,"ECCENTRICITY":0.00102878,"INCLINATION":51.6291,"RA_OF_ASC_NODE":250.0116,"ARG_OF_PERICENTER":298.4747,"MEAN_ANOMALY":61.5208,"EPHEMERIS_TYPE":0,"CLASSIFICATION_TYPE":"U","NORAD_CAT_ID":67686,"ELEMENT_SET_NO":999,"REV_AT_EPOCH":1045,"BSTAR":0.0005023073,"MEAN_MOTION_DOT":0.00036718,"MEAN_MOTION_DDOT":0},{"OBJECT_NAME":"HMU-SAT2","OBJECT_ID":"1998-067YD","EPOCH":"2026-04-15T03:08:18.801024","MEAN_MOTION":15.55306273,"ECCENTRICITY":0.00097097,"INCLINATION":51.6307,"RA_OF_ASC_NODE":250.254,"ARG_OF_PERICENTER":300.3665,"MEAN_ANOMALY":59.6366,"EPHEMERIS_TYPE":0,"CLASSIFICATION_TYPE":"U","NORAD_CAT_ID":67687,"ELEMENT_SET_NO":999,"REV_AT_EPOCH":1037,"BSTAR":0.00034532989,"MEAN_MOTION_DOT":0.00023493,"MEAN_MOTION_DDOT":0},{"OBJECT_NAME":"LEOPARD","OBJECT_ID":"1998-067YE","EPOCH":"2026-04-15T02:34:57.153216","MEAN_MOTION":15.56372678,"ECCENTRICITY":0.00099522,"INCLINATION":51.6292,"RA_OF_ASC_NODE":250.0982,"ARG_OF_PERICENTER":298.9533,"MEAN_ANOMALY":61.046,"EPHEMERIS_TYPE":0,"CLASSIFICATION_TYPE":"U","NORAD_CAT_ID":67688,"ELEMENT_SET_NO":999,"REV_AT_EPOCH":1037,"BSTAR":0.00046620969,"MEAN_MOTION_DOT":0.0003323,"MEAN_MOTION_DDOT":0},{"OBJECT_NAME":"CREW DRAGON 12","OBJECT_ID":"2026-031A","EPOCH":"2026-04-15T05:33:20.710080","MEAN_MOTION":15.48920688,"ECCENTRICITY":0.0006571,"INCLINATION":51.6321,"RA_OF_ASC_NODE":251.6702,"ARG_OF_PERICENTER":314.496,"MEAN_ANOMALY":45.5491,"EPHEMERIS_TYPE":0,"CLASSIFICATION_TYPE":"U","NORAD_CAT_ID":67796,"ELEMENT_SET_NO":999,"REV_AT_EPOCH":56202,"BSTAR":0.0001083435,"MEAN_MOTION_DOT":5.508e-5,"MEAN_MOTION_DDOT":0},{"OBJECT_NAME":"PROGRESS-MS 33","OBJECT_ID":"2026-058A","EPOCH":"2026-04-15T05:33:20.710080","MEAN_MOTION":15.48920688,"ECCENTRICITY":0.0006571,"INCLINATION":51.6321,"RA_OF_ASC_NODE":251.6702,"ARG_OF_PERICENTER":314.496,"MEAN_ANOMALY":45.5491,"EPHEMERIS_TYPE":0,"CLASSIFICATION_TYPE":"U","NORAD_CAT_ID":68319,"ELEMENT_SET_NO":999,"REV_AT_EPOCH":316,"BSTAR":0.0001083435,"MEAN_MOTION_DOT":5.508e-5,"MEAN_MOTION_DDOT":0},{"OBJECT_NAME":"CYGNUS NG-24","OBJECT_ID":"2026-079A","EPOCH":"2026-04-15T05:33:20.710080","MEAN_MOTION":15.48920688,"ECCENTRICITY":0.0006571,"INCLINATION":51.6321,"RA_OF_ASC_NODE":251.6702,"ARG_OF_PERICENTER":314.496,"MEAN_ANOMALY":45.5491,"EPHEMERIS_TYPE":0,"CLASSIFICATION_TYPE":"U","NORAD_CAT_ID":68689,"ELEMENT_SET_NO":999,"REV_AT_EPOCH":50,"BSTAR":0.0001083435,"MEAN_MOTION_DOT":5.508e-5,"MEAN_MOTION_DDOT":0}]
